norad_id,name,regime,epoch,line1,line2,inclination,eccentricity,mean_motion,raan,arg_pericenter,mean_anomaly
43015,MIRATA,LEO,22276.66548231,1 43015U 17073C   22276.66548231  .00011351  00000-0  80672-3 0    16\,2 43015  97.6587 167.9704 0234175 184.5635 175.3449 14.85299562263325,97.6587,0.0234175,14.85299562,167.9704,184.5635,175.3449
43015,MIRATA,LEO,22277.20443931,1 43015U 17073C   22277.20443931  .00012143  00000-0  86223-3 0    16\,2 43015  97.6588 168.4895 0234176 182.7910 177.2017 14.85313643263408,97.6588,0.0234176,14.85313643,168.4895,182.791,177.2017
43015,MIRATA,LEO,22277.60865430,1 43015U 17073C   22277.60865430  .00012236  00000-0  86849-3 0    19\,2 43015  97.6588 168.8789 0234178 181.4653 178.5906 14.85323161263469,97.6588,0.0234178,14.85323161,168.8789,181.4653,178.5906
43015,MIRATA,LEO,22278.28234037,1 43015U 17073C   22278.28234037  .00011162  00000-0  79243-3 0    14\,2 43015  97.6590 169.5278 0234183 179.2568 180.9043 14.85337336263568,97.659,0.0234183,14.85337336,169.5278,179.2568,180.9043
43015,MIRATA,LEO,22279.42759198,1 43015U 17073C   22279.42759198  .00011991  00000-0  85006-3 0    15\,2 43015  97.6588 170.6308 0234224 175.4807 184.8603 14.85362809263739,97.6588,0.0234224,14.85362809,170.6308,175.4807,184.8603
43015,MIRATA,LEO,22279.69705985,1 43015U 17073C   22279.69705985  .00012244  00000-0  86766-3 0    15\,2 43015  97.6588 170.8902 0234223 174.5906 185.7926 14.85369843263777,97.6588,0.0234223,14.85369843,170.8902,174.5906,185.7926
43015,MIRATA,LEO,22280.23599185,1 43015U 17073C   22280.23599185  .00014282  00000-0  10106-2 0    18\,2 43015  97.6587 171.4093 0234206 172.8068 187.6608 14.85385299263855,97.6587,0.0234206,14.85385299,171.4093,172.8068,187.6608
43015,MIRATA,LEO,22281.17911062,1 43015U 17073C   22281.17911062  .00013013  00000-0  92069-3 0  5198\,2 43015  97.6586 172.3175 0234223 169.6841 190.9306 14.85408125263998,97.6586,0.0234223,14.85408125,172.3175,169.6841,190.9306
43015,MIRATA,LEO,22281.24647562,1 43015U 17073C   22281.24647562  .00012890  00000-0  91196-3 0    15\,2 43015  97.6586 172.3824 0234229 169.4611 191.1641 14.85409764264006,97.6586,0.0234229,14.85409764,172.3824,169.4611,191.1641
43015,MIRATA,LEO,22281.65066435,1 43015U 17073C   22281.65066435  .00013190  00000-0  93283-3 0    17\,2 43015  97.6587 172.7716 0234213 168.1251 192.5625 14.85420224264067,97.6587,0.0234213,14.85420224,172.7716,168.1251,192.5625
43015,MIRATA,LEO,22282.18957703,1 43015U 17073C   22282.18957703  .00014840  00000-0  10480-2 0  5209\,2 43015  97.6586 173.2907 0234240 166.3445 194.4258 14.85436969264144,97.6586,0.023424,14.85436969,173.2907,166.3445,194.4258
43015,MIRATA,LEO,22282.25694070,1 43015U 17073C   22282.25694070  .00014761  00000-0  10424-2 0    16\,2 43015  97.6586 173.3555 0234245 166.1224 194.6581 14.85438819264150,97.6586,0.0234245,14.85438819,173.3555,166.1224,194.6581
43015,MIRATA,LEO,22282.66112076,1 43015U 17073C   22282.66112076  .00015045  00000-0  10620-2 0    16\,2 43015  97.6586 173.7448 0234235 164.7915 196.0503 14.85451254264210,97.6586,0.0234235,14.85451254,173.7448,164.7915,196.0503
43015,MIRATA,LEO,22283.26738353,1 43015U 17073C   22283.26738353  .00013486  00000-0  95201-3 0  5218\,2 43015  97.6584 174.3290 0234253 162.8055 198.1271 14.85468890264303,97.6584,0.0234253,14.8546889,174.329,162.8055,198.1271
43015,MIRATA,LEO,22283.46946984,1 43015U 17073C   22283.46946984  .00013216  00000-0  93299-3 0    10\,2 43015  97.6583 174.5236 0234244 162.1414 198.8212 14.85474172264331,97.6583,0.0234244,14.85474172,174.5236,162.1414,198.8212
43015,MIRATA,LEO,22284.21044598,1 43015U 17073C   22284.21044598  .00011159  00000-0  78837-3 0    19\,2 43015  97.6580 175.2372 0234225 159.7165 201.3550 14.85492517264441,97.658,0.0234225,14.85492517,175.2372,159.7165,201.355
43015,MIRATA,LEO,22284.61461153,1 43015U 17073C   22284.61461153  .00010581  00000-0  74762-3 0    14\,2 43015  97.6578 175.6264 0234230 158.3934 202.7367 14.85500830264503,97.6578,0.023423,14.8550083,175.6264,158.3934,202.7367
43015,MIRATA,LEO,22285.42293556,1 43015U 17073C   22285.42293556  .00011213  00000-0  79149-3 0    11\,2 43015  97.6575 176.4047 0234233 155.7371 205.5091 14.85517910264622,97.6575,0.0234233,14.8551791,176.4047,155.7371,205.5091
43015,MIRATA,LEO,22285.69237479,1 43015U 17073C   22285.69237479  .00011425  00000-0  80619-3 0    11\,2 43015  97.6573 176.6643 0234236 154.8479 206.4366 14.85524121264667,97.6573,0.0234236,14.85524121,176.6643,154.8479,206.4366
43015,MIRATA,LEO,22286.23125128,1 43015U 17073C   22286.23125128  .00009868  00000-0  69683-3 0    15\,2 43015  97.6570 177.1832 0234265 153.0677 208.2927 14.85531748264748,97.657,0.0234265,14.85531748,177.1832,153.0677,208.2927
43015,MIRATA,LEO,22287.24163359,1 43015U 17073C   22287.24163359  .00009789  00000-0  69076-3 0  5243\,2 43015  97.6568 178.1564 0234329 149.7333 211.7661 14.85550700264899,97.6568,0.0234329,14.855507,178.1564,149.7333,211.7661
43015,MIRATA,LEO,22287.44370818,1 43015U 17073C   22287.44370818  .00011718  00000-0  82543-3 0    14\,2 43015  97.6566 178.3511 0234355 149.0703 212.4562 14.85556664264921,97.6566,0.0234355,14.85556664,178.3511,149.0703,212.4562
43015,MIRATA,LEO,22288.25199856,1 43015U 17073C   22288.25199856  .00013333  00000-0  93759-3 0    11\,2 43015  97.6569 179.1298 0234394 146.4048 215.2285 14.85578528265041,97.6569,0.0234394,14.85578528,179.1298,146.4048,215.2285
43015,MIRATA,LEO,22288.65613939,1 43015U 17073C   22288.65613939  .00011700  00000-0  82332-3 0    19\,2 43015  97.6570 179.5191 0234395 145.0726 216.6126 14.85587307265109,97.657,0.0234395,14.85587307,179.5191,145.0726,216.6126
43015,MIRATA,LEO,22289.12763366,1 43015U 17073C   22289.12763366  .00010153  00000-0  71501-3 0    19\,2 43015  97.6569 179.9734 0234380 143.5235 218.2209 14.85596719265170,97.6569,0.023438,14.85596719,179.9734,143.5235,218.2209
43015,MIRATA,LEO,22289.66648030,1 43015U 17073C   22289.66648030  .00008657  00000-0  61031-3 0    11\,2 43015  97.6570 180.4924 0234373 141.7559 220.0546 14.85606688265252,97.657,0.0234373,14.85606688,180.4924,141.7559,220.0546
43015,MIRATA,LEO,22290.13796712,1 43015U 17073C   22290.13796712  .00008781  00000-0  61887-3 0    13\,2 43015  97.6569 180.9466 0234348 140.2123 221.6544 14.85616895265323,97.6569,0.0234348,14.85616895,180.9466,140.2123,221.6544
43015,MIRATA,LEO,22290.67680630,1 43015U 17073C   22290.67680630  .00006918  00000-0  48860-3 0    19\,2 43015  97.6570 181.4657 0234341 138.4503 223.4791 14.85624654265402,97.657,0.0234341,14.85624654,181.4657,138.4503,223.4791
43015,MIRATA,LEO,22291.21564194,1 43015U 17073C   22291.21564194  .00006193  00000-0  43791-3 0    19\,2 43015  97.6568 181.9847 0234331 136.6865 225.3039 14.85632592265489,97.6568,0.0234331,14.85632592,181.9847,136.6865,225.3039
43015,MIRATA,LEO,22291.61976725,1 43015U 17073C   22291.61976725  .00006472  00000-0  45728-3 0    12\,2 43015  97.6568 182.3739 0234348 135.3570 226.6784 14.85637836265545,97.6568,0.0234348,14.85637836,182.3739,135.357,226.6784
43015,MIRATA,LEO,22292.49536612,1 43015U 17073C   22292.49536612  .00006311  00000-0  44581-3 0    14\,2 43015  97.6570 183.2174 0234385 132.4866 229.6421 14.85648983265678,97.657,0.0234385,14.85648983,183.2174,132.4866,229.6421
43015,MIRATA,LEO,22293.23625169,1 43015U 17073C   22293.23625169  .00006160  00000-0  43504-3 0    19\,2 43015  97.6569 183.9311 0234433 130.0503 232.1537 14.85658425265783,97.6569,0.0234433,14.85658425,183.9311,130.0503,232.1537
43015,MIRATA,LEO,22294.11183658,1 43015U 17073C   22294.11183658  .00007069  00000-0  49811-3 0  5290\,2 43015  97.6570 184.7745 0234481 127.1685 235.1195 14.85671185265912,97.657,0.0234481,14.85671185,184.7745,127.1685,235.1195
43015,MIRATA,LEO,22294.51595008,1 43015U 17073C   22294.51595008  .00006618  00000-0  46659-3 0    11\,2 43015  97.6571 185.1637 0234506 125.8387 236.4863 14.85675596265972,97.6571,0.0234506,14.85675596,185.1637,125.8387,236.4863
43015,MIRATA,LEO,22294.58330210,1 43015U 17073C   22294.58330210  .00006675  00000-0  47056-3 0    15\,2 43015  97.6571 185.2286 0234495 125.6162 236.7147 14.85676668265989,97.6571,0.0234495,14.85676668,185.2286,125.6162,236.7147
43015,MIRATA,LEO,22295.12211641,1 43015U 17073C   22295.12211641  .00006968  00000-0  49082-3 0  5305\,2 43015  97.6572 185.7476 0234521 123.8472 238.5305 14.85685119266067,97.6572,0.0234521,14.85685119,185.7476,123.8472,238.5305
43015,MIRATA,LEO,22295.25681942,1 43015U 17073C   22295.25681942  .00007029  00000-0  49500-3 0    11\,2 43015  97.6572 185.8774 0234524 123.4038 238.9853 14.85687232266088,97.6572,0.0234524,14.85687232,185.8774,123.4038,238.9853
43015,MIRATA,LEO,22295.66092694,1 43015U 17073C   22295.66092694  .00008138  00000-0  57220-3 0    16\,2 43015  97.6572 186.2666 0234499 122.0785 240.3435 14.85695273266142,97.6572,0.0234499,14.85695273,186.2666,122.0785,240.3435
43015,MIRATA,LEO,22296.13238173,1 43015U 17073C   22296.13238173  .00009671  00000-0  67878-3 0  5314\,2 43015  97.6573 186.7206 0234476 120.5331 241.9256 14.85706957266211,97.6573,0.0234476,14.85706957,186.7206,120.5331,241.9256
43015,MIRATA,LEO,22296.46913367,1 43015U 17073C   22296.46913367  .00008318  00000-0  58451-3 0    11\,2 43015  97.6572 187.0450 0234471 119.4315 243.0524 14.85711007266267,97.6572,0.0234471,14.85711007,187.045,119.4315,243.0524
43015,MIRATA,LEO,22296.67118407,1 43015U 17073C   22296.67118407  .00008349  00000-0  58667-3 0    19\,2 43015  97.6572 187.2396 0234459 118.7704 243.7282 14.85715072266295,97.6572,0.0234459,14.85715072,187.2396,118.7704,243.7282
43015,MIRATA,LEO,22297.14263249,1 43015U 17073C   22297.14263249  .00008347  00000-0  58641-3 0  5326\,2 43015  97.6571 187.6937 0234429 117.2269 245.3045 14.85724381266362,97.6571,0.0234429,14.85724381,187.6937,117.2269,245.3045
43015,MIRATA,LEO,22297.47938015,1 43015U 17073C   22297.47938015  .00007064  00000-0  49706-3 0    10\,2 43015  97.6571 188.0181 0234413 116.1244 246.4294 14.85727827266414,97.6571,0.0234413,14.85727827,188.0181,116.1244,246.4294
